M83
G28
M666 F1
G21 ; set units to millimeters
G90 ; use absolute coordinates
T0
G1 X200 Y200 Z0 F12000
G1 X200 Y-200 Z0 E50
G1 X-200 Y-200 Z0 E50
G1 X-200 Y200 Z0 E50
G1 X200 Y200 Z0 E50
G1 X300 Y300 Z0
G1 X300 Y-300 Z0 E50
G1 X-300 Y-300 Z0 E50
G1 X-300 Y300 Z0 E50
G1 X300 Y300 Z0 E50
G1 X400 Y400 Z0
G1 X400 Y-400 Z0 E60
G1 X-400 Y-400 Z0 E60
G1 X-400 Y400 Z0 E60
G1 X400 Y400 Z0 E60
G1 X500 Y500 Z0
G1 X500 Y-500 Z0 E70
G1 X-500 Y-500 Z0 E70
G1 X-500 Y500 Z0 E70
G1 X500 Y500 Z0 E70
G1 X600 Y600 Z0
G1 X600 Y-600 Z0 E80
G1 X-600 Y-600 Z0 E80
G1 X-600 Y600 Z0 E80
G1 X600 Y600 Z0 E80
G1 X0 Y0 Z0
